IRIDIUM 154             
1 43574U 18061F   26178.20850060  .00000090  00000+0  25182-4 0  9994
2 43574  86.3954  52.6164 0002176  89.1391 271.0054 14.34217966414844
IRIDIUM 163             
1 43575U 18061G   26178.18947328  .00000108  00000+0  31458-4 0  9999
2 43575  86.3952  52.5393 0002202  83.5501 276.5945 14.34217909414810
IRIDIUM 156             
1 43576U 18061H   26178.16410753  .00000235  00000+0  76711-4 0  9997
2 43576  86.3953  52.5572 0002007  85.7801 274.3624 14.34218984414804
IRIDIUM 164             
1 43577U 18061J   26178.14507485  .00000084  00000+0  22884-4 0  9999
2 43577  86.3954  52.6057 0002226  90.1368 270.0083 14.34218092414842
IRIDIUM 159             
1 43578U 18061K   26178.18313076  .00000043  00000+0  82091-5 0  9997
2 43578  86.3951  52.5263 0002223  83.9433 276.2016 14.34217694414816
IRIDIUM 180             
1 43922U 19002A   26178.18262663  .00000014  00000+0 -19648-5 0  9998
2 43922  86.3972 349.4183 0002130  89.2659 270.8781 14.34217468390425
IRIDIUM 176             
1 43923U 19002B   26178.21816072  .00000762  00000+0  11696-3 0  9994
2 43923  86.6093 349.3453 0002416  88.5925 271.5569 14.72226853400724
IRIDIUM 168             
1 43924U 19002C   26178.03674229  .00000068  00000+0  17333-4 0  9995
2 43924  86.3976 349.5566 0002233  90.4422 269.7030 14.34216560390384
IRIDIUM 173             
1 43925U 19002D   26178.23336729  .00000050  00000+0  10953-4 0  9990
2 43925  86.3972 349.3629 0002162  88.7377 271.4066 14.34217895390391
IRIDIUM 169             
1 43926U 19002E   26178.26827249  .00000284  00000+0  86263-4 0  9992
2 43926  86.4218  20.9776 0001673  83.3521 276.7868 14.38607884391674
IRIDIUM 172             
1 43927U 19002F   26178.22702368  .00000006  00000+0 -50263-5 0  9998
2 43927  86.3970 349.3736 0002146  89.8086 270.3356 14.34216812390401
IRIDIUM 175             
1 43928U 19002G   26178.25717174  .00000312  00000+0  86149-4 0  9993
2 43928  86.4517 286.3115 0003775 152.7380 207.4020 14.43618047400437
IRIDIUM 171             
1 43929U 19002H   26178.20799652  .00000012  00000+0 -28370-5 0  9991
2 43929  86.3980 349.6889 0001984  93.9086 266.2337 14.34217573390397
IRIDIUM 170             
1 43930U 19002J   26178.02043091  .00000726  00000+0  11128-3 0  9994
2 43930  86.6093 349.4304 0002491  85.9663 274.1839 14.72226967400704
IRIDIUM 167             
1 43931U 19002K   26178.20165401 -.00000016  00000+0 -12770-4 0  9994
2 43931  86.3971 349.4067 0001894  97.3783 262.7628 14.34217337390390
IRIDIUM 181             
1 56726U 23068S   26178.15921919  .00000295  00000+0  81661-4 0  9997
2 56726  86.4490  52.6216 0002428  87.6357 272.5122 14.43311303163872
IRIDIUM 177             
1 56727U 23068T   26177.92210815  .00001038  00000+0  13376-3 0  9991
2 56727  86.1958 324.1675 0002156  88.0021 272.1446 14.80039543167802
IRIDIUM 174             
1 56728U 23068U   26178.21199485  .00000801  00000+0  12322-3 0  9991
2 56728  86.6101 349.4985 0002393  80.6291 279.5196 14.72235031167491
IRIDIUM 178             
1 56729U 23068V   26178.04632113  .00000771  00000+0  98128-4 0  9998
2 56729  86.6563  21.2355 0003306  75.7906 284.3683 14.80190446167824
IRIDIUM 179             
1 56730U 23068W   26178.10865348  .00000783  00000+0  99971-4 0  9995
2 56730  86.6769  30.2223 0002430  87.4022 272.7478 14.80054793167832
